[{"OBJECT_NAME":"SNAP-3 JIMI","OBJECT_ID":"2015-058M","EPOCH":"2026-03-14T15:04:24.021120","MEAN_MOTION":15.01209828,"ECCENTRICITY":0.01052675,"INCLINATION":64.7659,"RA_OF_ASC_NODE":158.704,"ARG_OF_PERICENTER":94.3555,"MEAN_ANOMALY":266.9598,"EPHEMERIS_TYPE":0,"CLASSIFICATION_TYPE":"U","NORAD_CAT_ID":40975,"ELEMENT_SET_NO":999,"REV_AT_EPOCH":10002,"BSTAR":0.00053989971,"MEAN_MOTION_DOT":7.652e-5,"MEAN_MOTION_DDOT":0},{"OBJECT_NAME":"PROPCUBE 1 (FLORA)","OBJECT_ID":"2015-058N","EPOCH":"2026-03-14T19:52:41.581920","MEAN_MOTION":14.88684395,"ECCENTRICITY":0.01298873,"INCLINATION":64.7736,"RA_OF_ASC_NODE":227.5531,"ARG_OF_PERICENTER":98.0995,"MEAN_ANOMALY":263.4875,"EPHEMERIS_TYPE":0,"CLASSIFICATION_TYPE":"U","NORAD_CAT_ID":40976,"ELEMENT_SET_NO":999,"REV_AT_EPOCH":10221,"BSTAR":0.00039728374,"MEAN_MOTION_DOT":4.183e-5,"MEAN_MOTION_DDOT":0},{"OBJECT_NAME":"SINOD-D 3","OBJECT_ID":"2015-058P","EPOCH":"2026-03-14T16:49:46.815456","MEAN_MOTION":14.93273826,"ECCENTRICITY":0.01182949,"INCLINATION":64.772,"RA_OF_ASC_NODE":210.6952,"ARG_OF_PERICENTER":96.071,"MEAN_ANOMALY":265.3897,"EPHEMERIS_TYPE":0,"CLASSIFICATION_TYPE":"U","NORAD_CAT_ID":40977,"ELEMENT_SET_NO":999,"REV_AT_EPOCH":10064,"BSTAR":0.00054674775,"MEAN_MOTION_DOT":6.415e-5,"MEAN_MOTION_DDOT":0},{"OBJECT_NAME":"HORYU-4","OBJECT_ID":"2016-012D","EPOCH":"2026-03-14T13:46:27.332544","MEAN_MOTION":15.63882335,"ECCENTRICITY":0.00039981,"INCLINATION":30.992,"RA_OF_ASC_NODE":33.8282,"ARG_OF_PERICENTER":201.4323,"MEAN_ANOMALY":158.6163,"EPHEMERIS_TYPE":0,"CLASSIFICATION_TYPE":"U","NORAD_CAT_ID":41340,"ELEMENT_SET_NO":999,"REV_AT_EPOCH":55587,"BSTAR":0.0012267309,"MEAN_MOTION_DOT":0.00121667,"MEAN_MOTION_DDOT":0},{"OBJECT_NAME":"RAVAN","OBJECT_ID":"2016-067B","EPOCH":"2026-03-15T04:59:59.257536","MEAN_MOTION":15.46662312,"ECCENTRICITY":0.0005529,"INCLINATION":98.0039,"RA_OF_ASC_NODE":313.4955,"ARG_OF_PERICENTER":346.6243,"MEAN_ANOMALY":13.4857,"EPHEMERIS_TYPE":0,"CLASSIFICATION_TYPE":"U","NORAD_CAT_ID":41849,"ELEMENT_SET_NO":999,"REV_AT_EPOCH":51313,"BSTAR":0.00094693278,"MEAN_MOTION_DOT":0.00047402,"MEAN_MOTION_DDOT":0},{"OBJECT_NAME":"CELTEE 1","OBJECT_ID":"2016-067C","EPOCH":"2026-03-15T03:37:49.842048","MEAN_MOTION":15.18676119,"ECCENTRICITY":0.00013258,"INCLINATION":98.0818,"RA_OF_ASC_NODE":294.2981,"ARG_OF_PERICENTER":131.0448,"MEAN_ANOMALY":229.0899,"EPHEMERIS_TYPE":0,"CLASSIFICATION_TYPE":"U","NORAD_CAT_ID":41850,"ELEMENT_SET_NO":999,"REV_AT_EPOCH":51160,"BSTAR":0.00040254966,"MEAN_MOTION_DOT":8.272e-5,"MEAN_MOTION_DDOT":0},{"OBJECT_NAME":"OPTICUBE 04","OBJECT_ID":"2016-067D","EPOCH":"2026-03-15T03:29:44.411424","MEAN_MOTION":15.09224697,"ECCENTRICITY":0.00170947,"INCLINATION":98.0807,"RA_OF_ASC_NODE":281.4871,"ARG_OF_PERICENTER":77.0605,"MEAN_ANOMALY":283.2531,"EPHEMERIS_TYPE":0,"CLASSIFICATION_TYPE":"U","NORAD_CAT_ID":41851,"ELEMENT_SET_NO":999,"REV_AT_EPOCH":51098,"BSTAR":0.00018232684,"MEAN_MOTION_DOT":2.838e-5,"MEAN_MOTION_DDOT":0},{"OBJECT_NAME":"AEROCUBE 8D","OBJECT_ID":"2016-067E","EPOCH":"2026-03-15T04:21:12.551328","MEAN_MOTION":15.22986526,"ECCENTRICITY":0.00048931,"INCLINATION":98.083,"RA_OF_ASC_NODE":297.2239,"ARG_OF_PERICENTER":97.803,"MEAN_ANOMALY":262.376,"EPHEMERIS_TYPE":0,"CLASSIFICATION_TYPE":"U","NORAD_CAT_ID":41852,"ELEMENT_SET_NO":999,"REV_AT_EPOCH":51175,"BSTAR":0.0004332192,"MEAN_MOTION_DOT":0.00010112,"MEAN_MOTION_DDOT":0},{"OBJECT_NAME":"AEROCUBE 8C","OBJECT_ID":"2016-067F","EPOCH":"2026-03-15T03:43:34.657536","MEAN_MOTION":15.23213968,"ECCENTRICITY":0.00061354,"INCLINATION":98.0701,"RA_OF_ASC_NODE":294.5478,"ARG_OF_PERICENTER":37.6932,"MEAN_ANOMALY":322.4732,"EPHEMERIS_TYPE":0,"CLASSIFICATION_TYPE":"U","NORAD_CAT_ID":41853,"ELEMENT_SET_NO":999,"REV_AT_EPOCH":51174,"BSTAR":0.00048369606,"MEAN_MOTION_DOT":0.0001138,"MEAN_MOTION_DDOT":0},{"OBJECT_NAME":"CORVUS BC2","OBJECT_ID":"2017-042X","EPOCH":"2026-03-15T04:15:02.548512","MEAN_MOTION":15.05654793,"ECCENTRICITY":0.00148467,"INCLINATION":97.3957,"RA_OF_ASC_NODE":239.2757,"ARG_OF_PERICENTER":76.4103,"MEAN_ANOMALY":283.8777,"EPHEMERIS_TYPE":0,"CLASSIFICATION_TYPE":"U","NORAD_CAT_ID":42846,"ELEMENT_SET_NO":999,"REV_AT_EPOCH":47291,"BSTAR":0.00025753961,"MEAN_MOTION_DOT":3.669e-5,"MEAN_MOTION_DDOT":0},{"OBJECT_NAME":"CORVUS BC1","OBJECT_ID":"2017-042Y","EPOCH":"2026-03-15T04:23:21.397056","MEAN_MOTION":15.05864042,"ECCENTRICITY":0.00133651,"INCLINATION":97.399,"RA_OF_ASC_NODE":240.0309,"ARG_OF_PERICENTER":55.7007,"MEAN_ANOMALY":304.5484,"EPHEMERIS_TYPE":0,"CLASSIFICATION_TYPE":"U","NORAD_CAT_ID":42847,"ELEMENT_SET_NO":999,"REV_AT_EPOCH":47294,"BSTAR":0.00026786348,"MEAN_MOTION_DOT":3.838e-5,"MEAN_MOTION_DDOT":0},{"OBJECT_NAME":"MAKERSAT 0","OBJECT_ID":"2017-073D","EPOCH":"2026-03-15T04:52:52.043232","MEAN_MOTION":15.28078906,"ECCENTRICITY":0.01147232,"INCLINATION":97.4785,"RA_OF_ASC_NODE":316.2018,"ARG_OF_PERICENTER":246.0562,"MEAN_ANOMALY":112.8629,"EPHEMERIS_TYPE":0,"CLASSIFICATION_TYPE":"U","NORAD_CAT_ID":43016,"ELEMENT_SET_NO":999,"REV_AT_EPOCH":45209,"BSTAR":0.00070291898,"MEAN_MOTION_DOT":0.00023403,"MEAN_MOTION_DDOT":0},{"OBJECT_NAME":"SIRION PATHFINDER-2","OBJECT_ID":"2018-099B","EPOCH":"2026-03-15T01:44:39.640992","MEAN_MOTION":15.13613694,"ECCENTRICITY":0.000729,"INCLINATION":97.4388,"RA_OF_ASC_NODE":125.3724,"ARG_OF_PERICENTER":263.7238,"MEAN_ANOMALY":96.3163,"EPHEMERIS_TYPE":0,"CLASSIFICATION_TYPE":"U","NORAD_CAT_ID":43759,"ELEMENT_SET_NO":999,"REV_AT_EPOCH":39838,"BSTAR":0.00039624319,"MEAN_MOTION_DOT":7.057e-5,"MEAN_MOTION_DDOT":0},{"OBJECT_NAME":"CORVUS BC4","OBJECT_ID":"2018-099K","EPOCH":"2026-03-15T02:05:35.706048","MEAN_MOTION":15.11677687,"ECCENTRICITY":0.00075174,"INCLINATION":97.4198,"RA_OF_ASC_NODE":119.8171,"ARG_OF_PERICENTER":336.0239,"MEAN_ANOMALY":24.064,"EPHEMERIS_TYPE":0,"CLASSIFICATION_TYPE":"U","NORAD_CAT_ID":43767,"ELEMENT_SET_NO":999,"REV_AT_EPOCH":39818,"BSTAR":0.00036488786,"MEAN_MOTION_DOT":6.151e-5,"MEAN_MOTION_DDOT":0},{"OBJECT_NAME":"M2 PATHFINDER","OBJECT_ID":"2020-037E","EPOCH":"2026-03-15T06:24:38.029248","MEAN_MOTION":15.04225845,"ECCENTRICITY":0.00128055,"INCLINATION":97.8173,"RA_OF_ASC_NODE":264.4497,"ARG_OF_PERICENTER":109.3265,"MEAN_ANOMALY":250.9347,"EPHEMERIS_TYPE":0,"CLASSIFICATION_TYPE":"U","NORAD_CAT_ID":45727,"ELEMENT_SET_NO":999,"REV_AT_EPOCH":31137,"BSTAR":0.00027321942,"MEAN_MOTION_DOT":3.74e-5,"MEAN_MOTION_DDOT":0},{"OBJECT_NAME":"NETSAT-4","OBJECT_ID":"2020-068U","EPOCH":"2026-03-15T05:48:31.549248","MEAN_MOTION":15.40626916,"ECCENTRICITY":0.00038204,"INCLINATION":97.8638,"RA_OF_ASC_NODE":75.16,"ARG_OF_PERICENTER":311.2398,"MEAN_ANOMALY":48.8517,"EPHEMERIS_TYPE":0,"CLASSIFICATION_TYPE":"U","NORAD_CAT_ID":46504,"ELEMENT_SET_NO":999,"REV_AT_EPOCH":30129,"BSTAR":0.00051997002,"MEAN_MOTION_DOT":0.00021122,"MEAN_MOTION_DDOT":0}]
