SNAP-3 JIMI             
1 40975U 15058M   26073.62805580  .00007652  00000+0  53990-3 0  9994
2 40975  64.7659 158.7040 0105267  94.3555 266.9598 15.01209828100025
PROPCUBE 1 (FLORA)      
1 40976U 15058N   26073.82825905  .00004183  00000+0  39728-3 0  9999
2 40976  64.7736 227.5531 0129887  98.0995 263.4875 14.88684395102218
SINOD-D 3               
1 40977U 15058P   26073.70123629  .00006415  00000+0  54675-3 0  9999
2 40977  64.7720 210.6952 0118294  96.0710 265.3897 14.93273826100644
HORYU-4                 
1 41340U 16012D   26073.57392746  .00121667  00000+0  12267-2 0  9995
2 41340  30.9920  33.8282 0003998 201.4323 158.6163 15.63882335555871
RAVAN                   
1 41849U 16067B   26074.20832474  .00047402  00000+0  94693-3 0  9995
2 41849  98.0039 313.4955 0005529 346.6243  13.4857 15.46662312513133
CELTEE 1                
1 41850U 16067C   26074.15127132  .00008272  00000+0  40255-3 0  9996
2 41850  98.0818 294.2981 0001325 131.0448 229.0899 15.18676119511608
OPTICUBE 04             
1 41851U 16067D   26074.14565291  .00002838  00000+0  18233-3 0  9991
2 41851  98.0807 281.4871 0017094  77.0605 283.2531 15.09224697510982
AEROCUBE 8D             
1 41852U 16067E   26074.18139527  .00010112  00000+0  43322-3 0  9996
2 41852  98.0830 297.2239 0004893  97.8030 262.3760 15.22986526511756
AEROCUBE 8C             
1 41853U 16067F   26074.15526224  .00011380  00000+0  48370-3 0  9994
2 41853  98.0701 294.5478 0006135  37.6932 322.4732 15.23213968511743
CORVUS BC2              
1 42846U 17042X   26074.17711283  .00003669  00000+0  25754-3 0  9996
2 42846  97.3957 239.2757 0014846  76.4103 283.8777 15.05654793472915
CORVUS BC1              
1 42847U 17042Y   26074.18288654  .00003838  00000+0  26786-3 0  9993
2 42847  97.3990 240.0309 0013365  55.7007 304.5484 15.05864042472943
MAKERSAT 0              
1 43016U 17073D   26074.20338013  .00023403  00000+0  70292-3 0  9995
2 43016  97.4785 316.2018 0114723 246.0562 112.8629 15.28078906452095
SIRION PATHFINDER-2     
1 43759U 18099B   26074.07268103  .00007057  00000+0  39624-3 0  9996
2 43759  97.4388 125.3724 0007290 263.7238  96.3163 15.13613694398380
CORVUS BC4              
1 43767U 18099K   26074.08721882  .00006151  00000+0  36489-3 0  9994
2 43767  97.4198 119.8171 0007517 336.0239  24.0640 15.11677687398185
M2 PATHFINDER           
1 45727U 20037E   26074.26710682  .00003740  00000+0  27322-3 0  9990
2 45727  97.8173 264.4497 0012805 109.3265 250.9347 15.04225845311371
NETSAT-4                
1 46504U 20068U   26074.24203182  .00021122  00000+0  51997-3 0  9997
2 46504  97.8638  75.1600 0003820 311.2398  48.8517 15.40626916301299
